{
  "type": "FeatureCollection",
  "features": [
    {
      "type": "Feature",
      "properties": {
        "norad_id": 66926,
        "name": "STARLINK-35942",
        "group": "last-30-days",
        "lat": 28.044475231726356,
        "lon": 153.51125233556107,
        "alt_km": 358.1012878985375,
        "timestamp": "2025-12-23T09:49:05.798919+00:00",
        "meta_object_name": "STARLINK-35942",
        "meta_object_id": "2025-286B",
        "meta_epoch": "2025-12-22T22:00:03.000096",
        "meta_mean_motion": 15.70975524,
        "meta_eccentricity": 0.00012144,
        "meta_inclination": 53.1595,
        "meta_ra_of_asc_node": 359.4802,
        "meta_arg_of_pericenter": 109.5371,
        "meta_mean_anomaly": 129.8808,
        "meta_ephemeris_type": 0,
        "meta_classification_type": "U",
        "meta_norad_cat_id": 66926,
        "meta_element_set_no": 999,
        "meta_rev_at_epoch": 362,
        "meta_bstar": -0.017024417,
        "meta_mean_motion_dot": -0.01928028,
        "meta_mean_motion_ddot": 0,
        "tle_line1": "1 66926U 25286B   25356.91670139 -.01928028  00000+0 -17024-1 0  9995",
        "tle_line2": "2 66926  53.1595 359.4802 0001214 109.5371 129.8808 15.70975524  3626"
      },
      "geometry": {
        "type": "Point",
        "coordinates": [
          153.51125233556107,
          28.044475231726356
        ]
      }
    },
    {
      "type": "Feature",
      "properties": {
        "norad_id": 66927,
        "name": "STARLINK-35943",
        "group": "last-30-days",
        "lat": 26.629301656568835,
        "lon": 154.9663965748831,
        "alt_km": 358.3707402121636,
        "timestamp": "2025-12-23T09:49:05.798931+00:00",
        "meta_object_name": "STARLINK-35943",
        "meta_object_id": "2025-286C",
        "meta_epoch": "2025-12-22T22:00:03.000096",
        "meta_mean_motion": 15.70977058,
        "meta_eccentricity": 0.00012196,
        "meta_inclination": 53.1593,
        "meta_ra_of_asc_node": 359.4767,
        "meta_arg_of_pericenter": 108.4429,
        "meta_mean_anomaly": 132.8938,
        "meta_ephemeris_type": 0,
        "meta_classification_type": "U",
        "meta_norad_cat_id": 66927,
        "meta_element_set_no": 999,
        "meta_rev_at_epoch": 362,
        "meta_bstar": -0.017074953,
        "meta_mean_motion_dot": -0.01933212,
        "meta_mean_motion_ddot": 0,
        "tle_line1": "1 66927U 25286C   25356.91670139 -.01933212  00000+0 -17075-1 0  9993",
        "tle_line2": "2 66927  53.1593 359.4767 0001219 108.4429 132.8938 15.70977058  3624"
      },
      "geometry": {
        "type": "Point",
        "coordinates": [
          154.9663965748831,
          26.629301656568835
        ]
      }
    },
    {
      "type": "Feature",
      "properties": {
        "norad_id": 66928,
        "name": "STARLINK-35944",
        "group": "last-30-days",
        "lat": 29.44480072846341,
        "lon": 152.01648831727218,
        "alt_km": 357.8468255656153,
        "timestamp": "2025-12-23T09:49:05.798941+00:00",
        "meta_object_name": "STARLINK-35944",
        "meta_object_id": "2025-286D",
        "meta_epoch": "2025-12-22T22:00:03.000096",
        "meta_mean_motion": 15.70976331,
        "meta_eccentricity": 0.00012384,
        "meta_inclination": 53.1593,
        "meta_ra_of_asc_node": 359.4842,
        "meta_arg_of_pericenter": 110.0677,
        "meta_mean_anomaly": 127.4353,
        "meta_ephemeris_type": 0,
        "meta_classification_type": "U",
        "meta_norad_cat_id": 66928,
        "meta_element_set_no": 999,
        "meta_rev_at_epoch": 362,
        "meta_bstar": -0.017065208,
        "meta_mean_motion_dot": -0.01932196,
        "meta_mean_motion_ddot": 0,
        "tle_line1": "1 66928U 25286D   25356.91670139 -.01932196  00000+0 -17065-1 0  9993",
        "tle_line2": "2 66928  53.1593 359.4842 0001238 110.0677 127.4353 15.70976331  3628"
      },
      "geometry": {
        "type": "Point",
        "coordinates": [
          152.01648831727218,
          29.44480072846341
        ]
      }
    },
    {
      "type": "Feature",
      "properties": {
        "norad_id": 66929,
        "name": "STARLINK-36169",
        "group": "last-30-days",
        "lat": 25.198435334690664,
        "lon": 156.38571900574303,
        "alt_km": 358.6612224141436,
        "timestamp": "2025-12-23T09:49:05.798951+00:00",
        "meta_object_name": "STARLINK-36169",
        "meta_object_id": "2025-286E",
        "meta_epoch": "2025-12-22T22:00:03.000096",
        "meta_mean_motion": 15.70975428,
        "meta_eccentricity": 0.00012357,
        "meta_inclination": 53.1592,
        "meta_ra_of_asc_node": 359.472,
        "meta_arg_of_pericenter": 102.5805,
        "meta_mean_anomaly": 140.6737,
        "meta_ephemeris_type": 0,
        "meta_classification_type": "U",
        "meta_norad_cat_id": 66929,
        "meta_element_set_no": 999,
        "meta_rev_at_epoch": 362,
        "meta_bstar": -0.017052694,
        "meta_mean_motion_dot": -0.01930874,
        "meta_mean_motion_ddot": 0,
        "tle_line1": "1 66929U 25286E   25356.91670139 -.01930874  00000+0 -17053-1 0  9992",
        "tle_line2": "2 66929  53.1592 359.4720 0001235 102.5805 140.6737 15.70975428  3628"
      },
      "geometry": {
        "type": "Point",
        "coordinates": [
          156.38571900574303,
          25.198435334690664
        ]
      }
    },
    {
      "type": "Feature",
      "properties": {
        "norad_id": 66930,
        "name": "STARLINK-36206",
        "group": "last-30-days",
        "lat": 23.757553675013344,
        "lon": 157.76966625069826,
        "alt_km": 359.0262688071789,
        "timestamp": "2025-12-23T09:49:05.798961+00:00",
        "meta_object_name": "STARLINK-36206",
        "meta_object_id": "2025-286F",
        "meta_epoch": "2025-12-22T22:00:03.000096",
        "meta_mean_motion": 15.70978278,
        "meta_eccentricity": 0.00010371,
        "meta_inclination": 53.1592,
        "meta_ra_of_asc_node": 359.4682,
        "meta_arg_of_pericenter": 103.4329,
        "meta_mean_anomaly": 141.7376,
        "meta_ephemeris_type": 0,
        "meta_classification_type": "U",
        "meta_norad_cat_id": 66930,
        "meta_element_set_no": 999,
        "meta_rev_at_epoch": 362,
        "meta_bstar": -0.017106099,
        "meta_mean_motion_dot": -0.01936288,
        "meta_mean_motion_ddot": 0,
        "tle_line1": "1 66930U 25286F   25356.91670139 -.01936288  00000+0 -17106-1 0  9998",
        "tle_line2": "2 66930  53.1592 359.4682 0001037 103.4329 141.7376 15.70978278  3625"
      },
      "geometry": {
        "type": "Point",
        "coordinates": [
          157.76966625069826,
          23.757553675013344
        ]
      }
    },
    {
      "type": "Feature",
      "properties": {
        "norad_id": 66931,
        "name": "STARLINK-36130",
        "group": "last-30-days",
        "lat": 22.300141574736504,
        "lon": 159.12687399419644,
        "alt_km": 359.1554843903896,
        "timestamp": "2025-12-23T09:49:05.798973+00:00",
        "meta_object_name": "STARLINK-36130",
        "meta_object_id": "2025-286G",
        "meta_epoch": "2025-12-22T22:00:03.000096",
        "meta_mean_motion": 15.70975631,
        "meta_eccentricity": 0.00012311,
        "meta_inclination": 53.1591,
        "meta_ra_of_asc_node": 359.4642,
        "meta_arg_of_pericenter": 104.7164,
        "meta_mean_anomaly": 142.3696,
        "meta_ephemeris_type": 0,
        "meta_classification_type": "U",
        "meta_norad_cat_id": 66931,
        "meta_element_set_no": 999,
        "meta_rev_at_epoch": 362,
        "meta_bstar": -0.017037556,
        "meta_mean_motion_dot": -0.01929367,
        "meta_mean_motion_ddot": 0,
        "tle_line1": "1 66931U 25286G   25356.91670139 -.01929367  00000+0 -17038-1 0  9993",
        "tle_line2": "2 66931  53.1591 359.4642 0001231 104.7164 142.3696 15.70975631  3620"
      },
      "geometry": {
        "type": "Point",
        "coordinates": [
          159.12687399419644,
          22.300141574736504
        ]
      }
    },
    {
      "type": "Feature",
      "properties": {
        "norad_id": 66932,
        "name": "STARLINK-36177",
        "group": "last-30-days",
        "lat": 20.834035872346185,
        "lon": 160.45364666050733,
        "alt_km": 359.46167526142835,
        "timestamp": "2025-12-23T09:49:05.798983+00:00",
        "meta_object_name": "STARLINK-36177",
        "meta_object_id": "2025-286H",
        "meta_epoch": "2025-12-22T22:00:03.000096",
        "meta_mean_motion": 15.70976742,
        "meta_eccentricity": 0.00012433,
        "meta_inclination": 53.1592,
        "meta_ra_of_asc_node": 359.46,
        "meta_arg_of_pericenter": 100.0167,
        "meta_mean_anomaly": 148.9871,
        "meta_ephemeris_type": 0,
        "meta_classification_type": "U",
        "meta_norad_cat_id": 66932,
        "meta_element_set_no": 999,
        "meta_rev_at_epoch": 362,
        "meta_bstar": -0.017072547,
        "meta_mean_motion_dot": -0.01932966,
        "meta_mean_motion_ddot": 0,
        "tle_line1": "1 66932U 25286H   25356.91670139 -.01932966  00000+0 -17073-1 0  9992",
        "tle_line2": "2 66932  53.1592 359.4600 0001243 100.0167 148.9871 15.70976742  3622"
      },
      "geometry": {
        "type": "Point",
        "coordinates": [
          160.45364666050733,
          20.834035872346185
        ]
      }
    }
  ]
}